RADUGA-1 8 [-]          
1 34264U 09010A   17345.50869775  .00000020  00000-0  00000+0 0  9997
2 34264   6.0787  66.7412 0010492 295.3977 146.6186  0.99816883 32125
